0 SL-8 DEB
1 21208U 91009BB  13280.57597375 -.00000040  00000-0 -19691-3 0  1733
2 21208 073.9597 351.5094 0149796 218.4425 209.2182 12.30537265 11745
0 SL-8 DEB
1 21208U 91009BB  13286.61147909 -.00000038  00000-0 -18188-3 0  1757
2 21208 073.9590 343.7405 0149754 209.8637 305.9789 12.30537075 12488
0 SL-8 DEB
1 21208U 91009BB  13289.19372488 -.00000051  00000-0 -29279-3 0  1764
2 21208 073.9588 340.4166 0149688 206.1568 225.1388 12.30537167 12808
0 SL-8 DEB
1 21208U 91009BB  13292.20212566 -.00000045  00000-0 -24068-3 0  1775
2 21208 073.9587 336.5440 0149567 201.8782 232.0952 12.30537280 13175
0 SL-8 DEB
1 21208U 91009BB  13294.48850823 -.00000002  00000-0  11339-3 0  1781
2 21208 073.9594 333.6017 0149598 198.5797 280.6263 12.30537644 13452
